{"type": "FeatureCollection", "features": [ {"type": "Feature", "properties": {"norad_id": 34327, "name": "COSMOS 2251 DEB", "group": "cosmos-2251-debris", "lat": -36.69094297388232, "lon": 166.3826003218123, "alt_km": 588.0592035419877, "timestamp": "2025-12-09T07:41:33.605665+00:00", "meta": {"OBJECT_NAME": "COSMOS 2251 DEB", "OBJECT_ID": "1993-036NZ", "EPOCH": "2025-12-08T22:42:55.346688", "MEAN_MOTION": 14.89047111, "ECCENTRICITY": 0.00325644, "INCLINATION": 73.9934, "RA_OF_ASC_NODE": 179.4826, "ARG_OF_PERICENTER": 356.6171, "MEAN_ANOMALY": 120.9503, "EPHEMERIS_TYPE": 0, "CLASSIFICATION_TYPE": "U", "NORAD_CAT_ID": 34327, "ELEMENT_SET_NO": 999, "REV_AT_EPOCH": 89451, "BSTAR": 0.0013086278, "MEAN_MOTION_DOT": 0.00012434, "MEAN_MOTION_DDOT": 0}, "tle": {"line1": "1 34327U 93036NZ  25342.94647392  .00012434  00000+0  13086-2 0  9993", "line2": "2 34327  73.9934 179.4826 0032564 356.6171 120.9503 14.89047111894515"}}, "geometry": {"type": "Point", "coordinates": [166.3826003218123, -36.69094297388232]}}, {"type": "Feature", "properties": {"norad_id": 34340, "name": "COSMOS 2251 DEB", "group": "cosmos-2251-debris", "lat": 21.06836664138604, "lon": -39.98982738341174, "alt_km": 804.4072541463956, "timestamp": "2025-12-09T07:41:33.605675+00:00", "meta": {"OBJECT_NAME": "COSMOS 2251 DEB", "OBJECT_ID": "1993-036PN", "EPOCH": "2025-12-08T16:48:01.370304", "MEAN_MOTION": 13.79549441, "ECCENTRICITY": 0.02821961, "INCLINATION": 74.0796, "RA_OF_ASC_NODE": 314.7335, "ARG_OF_PERICENTER": 63.5043, "MEAN_ANOMALY": 120.086, "EPHEMERIS_TYPE": 0, "CLASSIFICATION_TYPE": "U", "NORAD_CAT_ID": 34340, "ELEMENT_SET_NO": 999, "REV_AT_EPOCH": 84212, "BSTAR": 0.0019552074, "MEAN_MOTION_DOT": 2.696e-05, "MEAN_MOTION_DDOT": 0}, "tle": {"line1": "1 34340U 93036PN  25342.70001586  .00002696  00000+0  19552-2 0  9994", "line2": "2 34340  74.0796 314.7335 0282196  63.5043 120.0860 13.79549441842125"}}, "geometry": {"type": "Point", "coordinates": [-39.98982738341174, 21.06836664138604]}}, {"type": "Feature", "properties": {"norad_id": 34343, "name": "COSMOS 2251 DEB", "group": "cosmos-2251-debris", "lat": 66.51391811508798, "lon": 137.44291128578317, "alt_km": 648.2690825680093, "timestamp": "2025-12-09T07:41:33.605686+00:00", "meta": {"OBJECT_NAME": "COSMOS 2251 DEB", "OBJECT_ID": "1993-036PR", "EPOCH": "2025-12-08T18:49:09.226848", "MEAN_MOTION": 14.69331068, "ECCENTRICITY": 0.00230286, "INCLINATION": 74.0204, "RA_OF_ASC_NODE": 97.2236, "ARG_OF_PERICENTER": 13.4265, "MEAN_ANOMALY": 102.8026, "EPHEMERIS_TYPE": 0, "CLASSIFICATION_TYPE": "U", "NORAD_CAT_ID": 34343, "ELEMENT_SET_NO": 999, "REV_AT_EPOCH": 88672, "BSTAR": 0.0023242647, "MEAN_MOTION_DOT": 0.00013781, "MEAN_MOTION_DDOT": 0}, "tle": {"line1": "1 34343U 93036PR  25342.78413457  .00013781  00000+0  23243-2 0  9998", "line2": "2 34343  74.0204  97.2236 0023028  13.4265 102.8026 14.69331068886722"}}, "geometry": {"type": "Point", "coordinates": [137.44291128578317, 66.51391811508798]}}, {"type": "Feature", "properties": {"norad_id": 34344, "name": "COSMOS 2251 DEB", "group": "cosmos-2251-debris", "lat": 67.66261082010452, "lon": -107.9208493343585, "alt_km": 938.7227393631629, "timestamp": "2025-12-09T07:41:33.605696+00:00", "meta": {"OBJECT_NAME": "COSMOS 2251 DEB", "OBJECT_ID": "1993-036PS", "EPOCH": "2025-12-08T19:54:54.337248", "MEAN_MOTION": 14.16365977, "ECCENTRICITY": 0.01555695, "INCLINATION": 73.9779, "RA_OF_ASC_NODE": 117.3272, "ARG_OF_PERICENTER": 302.2966, "MEAN_ANOMALY": 181.7308, "EPHEMERIS_TYPE": 0, "CLASSIFICATION_TYPE": "U", "NORAD_CAT_ID": 34344, "ELEMENT_SET_NO": 999, "REV_AT_EPOCH": 86041, "BSTAR": 0.0025771596, "MEAN_MOTION_DOT": 5.736e-05, "MEAN_MOTION_DDOT": 0}, "tle": {"line1": "1 34344U 93036PS  25342.82979557  .00005736  00000+0  25772-2 0  9992", "line2": "2 34344  73.9779 117.3272 0155569 302.2966 181.7308 14.16365977860410"}}, "geometry": {"type": "Point", "coordinates": [-107.9208493343585, 67.66261082010452]}}, {"type": "Feature", "properties": {"norad_id": 34346, "name": "COSMOS 2251 DEB", "group": "cosmos-2251-debris", "lat": 56.93668893773283, "lon": -15.659577775277244, "alt_km": 852.9126333822533, "timestamp": "2025-12-09T07:41:33.605706+00:00", "meta": {"OBJECT_NAME": "COSMOS 2251 DEB", "OBJECT_ID": "1993-036PU", "EPOCH": "2025-12-08T09:41:36.178080", "MEAN_MOTION": 13.9967313, "ECCENTRICITY": 0.02064041, "INCLINATION": 73.9955, "RA_OF_ASC_NODE": 319.7696, "ARG_OF_PERICENTER": 139.731, "MEAN_ANOMALY": 346.312, "EPHEMERIS_TYPE": 0, "CLASSIFICATION_TYPE": "U", "NORAD_CAT_ID": 34346, "ELEMENT_SET_NO": 999, "REV_AT_EPOCH": 85349, "BSTAR": 0.0012989942, "MEAN_MOTION_DOT": 2.26e-05, "MEAN_MOTION_DDOT": 0}, "tle": {"line1": "1 34346U 93036PU  25342.40389095  .00002260  00000+0  12990-2 0  9997", "line2": "2 34346  73.9955 319.7696 0206404 139.7310 346.3120 13.99673130853491"}}, "geometry": {"type": "Point", "coordinates": [-15.659577775277244, 56.93668893773283]}}, {"type": "Feature", "properties": {"norad_id": 34383, "name": "COSMOS 2251 DEB", "group": "cosmos-2251-debris", "lat": -0.7191235336018212, "lon": -55.45469521061912, "alt_km": 542.1143451636472, "timestamp": "2025-12-09T07:41:33.605717+00:00", "meta": {"OBJECT_NAME": "COSMOS 2251 DEB", "OBJECT_ID": "1993-036PY", "EPOCH": "2025-12-09T00:03:30.027168", "MEAN_MOTION": 15.08453607, "ECCENTRICITY": 0.00026164, "INCLINATION": 74.023, "RA_OF_ASC_NODE": 305.4066, "ARG_OF_PERICENTER": 35.6633, "MEAN_ANOMALY": 37.0397, "EPHEMERIS_TYPE": 0, "CLASSIFICATION_TYPE": "U", "NORAD_CAT_ID": 34383, "ELEMENT_SET_NO": 999, "REV_AT_EPOCH": 89057, "BSTAR": 0.0039629435, "MEAN_MOTION_DOT": 0.00062255, "MEAN_MOTION_DDOT": 0}, "tle": {"line1": "1 34383U 93036PY  25343.00243087  .00062255  00000+0  39629-2 0  9993", "line2": "2 34383  74.0230 305.4066 0002616  35.6633  37.0397 15.08453607890571"}}, "geometry": {"type": "Point", "coordinates": [-55.45469521061912, -0.7191235336018212]}}, {"type": "Feature", "properties": {"norad_id": 34387, "name": "COSMOS 2251 DEB", "group": "cosmos-2251-debris", "lat": 13.999463333484401, "lon": -137.6579793244085, "alt_km": 732.2669336708805, "timestamp": "2025-12-09T07:41:33.605813+00:00", "meta": {"OBJECT_NAME": "COSMOS 2251 DEB", "OBJECT_ID": "1993-036QC", "EPOCH": "2025-12-08T16:55:10.212384", "MEAN_MOTION": 14.43808648, "ECCENTRICITY": 0.00387039, "INCLINATION": 74.0398, "RA_OF_ASC_NODE": 219.3942, "ARG_OF_PERICENTER": 317.0202, "MEAN_ANOMALY": 99.1336, "EPHEMERIS_TYPE": 0, "CLASSIFICATION_TYPE": "U", "NORAD_CAT_ID": 34387, "ELEMENT_SET_NO": 999, "REV_AT_EPOCH": 88123, "BSTAR": 0.00055440692, "MEAN_MOTION_DOT": 1.878e-05, "MEAN_MOTION_DDOT": 0}, "tle": {"line1": "1 34387U 93036QC  25342.70497931  .00001878  00000+0  55441-3 0  9997", "line2": "2 34387  74.0398 219.3942 0038703 317.0202  99.1336 14.43808648881233"}}, "geometry": {"type": "Point", "coordinates": [-137.6579793244085, 13.999463333484401]}}, {"type": "Feature", "properties": {"norad_id": 34388, "name": "COSMOS 2251 DEB", "group": "cosmos-2251-debris", "lat": -65.5592043434796, "lon": -169.51214351892767, "alt_km": 724.7853319090354, "timestamp": "2025-12-09T07:41:33.605828+00:00", "meta": {"OBJECT_NAME": "COSMOS 2251 DEB", "OBJECT_ID": "1993-036QD", "EPOCH": "2025-12-08T23:48:32.256000", "MEAN_MOTION": 14.49334166, "ECCENTRICITY": 0.00142001, "INCLINATION": 74.039, "RA_OF_ASC_NODE": 230.1334, "ARG_OF_PERICENTER": 278.508, "MEAN_ANOMALY": 97.0277, "EPHEMERIS_TYPE": 0, "CLASSIFICATION_TYPE": "U", "NORAD_CAT_ID": 34388, "ELEMENT_SET_NO": 999, "REV_AT_EPOCH": 88101, "BSTAR": 0.00087019971, "MEAN_MOTION_DOT": 3.301e-05, "MEAN_MOTION_DDOT": 0}, "tle": {"line1": "1 34388U 93036QD  25342.99204000  .00003301  00000+0  87020-3 0  9993", "line2": "2 34388  74.0390 230.1334 0014200 278.5080  97.0277 14.49334166881015"}}, "geometry": {"type": "Point", "coordinates": [-169.51214351892767, -65.5592043434796]}}, {"type": "Feature", "properties": {"norad_id": 34389, "name": "COSMOS 2251 DEB", "group": "cosmos-2251-debris", "lat": 45.19365217086532, "lon": -87.0771366540844, "alt_km": 733.2547372422141, "timestamp": "2025-12-09T07:41:33.605838+00:00", "meta": {"OBJECT_NAME": "COSMOS 2251 DEB", "OBJECT_ID": "1993-036QE", "EPOCH": "2025-12-08T21:50:31.375968", "MEAN_MOTION": 14.41517141, "ECCENTRICITY": 0.00287254, "INCLINATION": 74.0195, "RA_OF_ASC_NODE": 256.915, "ARG_OF_PERICENTER": 9.685, "MEAN_ANOMALY": 68.6301, "EPHEMERIS_TYPE": 0, "CLASSIFICATION_TYPE": "U", "NORAD_CAT_ID": 34389, "ELEMENT_SET_NO": 999, "REV_AT_EPOCH": 87957, "BSTAR": 0.00057705261, "MEAN_MOTION_DOT": 1.857e-05, "MEAN_MOTION_DDOT": 0}, "tle": {"line1": "1 34389U 93036QE  25342.91008537  .00001857  00000+0  57705-3 0  9994", "line2": "2 34389  74.0195 256.9150 0028725   9.6850  68.6301 14.41517141879574"}}, "geometry": {"type": "Point", "coordinates": [-87.0771366540844, 45.19365217086532]}}, {"type": "Feature", "properties": {"norad_id": 34396, "name": "COSMOS 2251 DEB", "group": "cosmos-2251-debris", "lat": -65.99528441554651, "lon": 90.68760917661061, "alt_km": 656.4263815760896, "timestamp": "2025-12-09T07:41:33.605849+00:00", "meta": {"OBJECT_NAME": "COSMOS 2251 DEB", "OBJECT_ID": "1993-036QM", "EPOCH": "2025-12-08T21:10:40.073664", "MEAN_MOTION": 14.74240949, "ECCENTRICITY": 0.00066113, "INCLINATION": 74.0291, "RA_OF_ASC_NODE": 131.5657, "ARG_OF_PERICENTER": 173.1693, "MEAN_ANOMALY": 310.6919, "EPHEMERIS_TYPE": 0, "CLASSIFICATION_TYPE": "U", "NORAD_CAT_ID": 34396, "ELEMENT_SET_NO": 999, "REV_AT_EPOCH": 88289, "BSTAR": 0.002735551, "MEAN_MOTION_DOT": 0.00018107, "MEAN_MOTION_DDOT": 0}, "tle": {"line1": "1 34396U 93036QM  25342.88240826  .00018107  00000+0  27356-2 0  9991", "line2": "2 34396  74.0291 131.5657 0006611 173.1693 310.6919 14.74240949882890"}}, "geometry": {"type": "Point", "coordinates": [90.68760917661061, -65.99528441554651]}}]}